SL-14 R/B               
1 20466U 90010B   26156.83741805  .00000390  00000+0  44210-4 0  9990
2 20466  82.5019 184.6039 0020117  13.9579 346.2188 14.83639136941551
SL-14 R/B               
1 20511U 90018B   26156.66997546  .00000406  00000+0  47809-4 0  9990
2 20511  82.5202 140.8726 0016775 157.3822 202.8136 14.82208520935610
HST                     
1 20580U 90037B   26156.34226219  .00005266  00000+0  16530-3 0  9999
2 20580  28.4714 161.5212 0001846  24.4267 335.6416 15.30618516786752
SL-16 R/B               
1 20625U 90046B   26156.63755414  .00000211  00000+0  13348-3 0  9994
2 20625  70.9977 113.2042 0014179 179.3303 180.7841 14.15019866860832
COSMOS 2084             
1 20663U 90055A   26156.84073314  .00002415  00000+0  17824-3 0  9992
2 20663  62.7909  34.8168 0005573 258.3605 101.6870 15.06069447949592
SL-6 R/B(2)             
1 20666U 90055D   26156.81283866  .00002179  00000+0  16923-3 0  9993
2 20666  62.7841 314.0811 0038723   3.5052 356.6311 15.03965061951440
SL-8 R/B                
1 20775U 90078B   26156.45947230  .00017486  00000+0  49268-3 0  9996
2 20775  82.9014 172.2366 0353184  77.9086 286.1469 14.91883190822377
SL-8 R/B                
1 21088U 91006B   26156.87597653  .00000053  00000+0  37195-4 0  9991
2 21088  82.9417 104.4480 0023142 144.8562 269.4299 13.77505101776219
OKEAN-3                 
1 21397U 91039A   26156.50572372  .00002509  00000+0  17321-3 0  9997
2 21397  82.5169 251.7086 0014712  37.6890 322.5365 15.05275848878242
SL-14 R/B               
1 21423U 91042B   26156.67409923  .00000422  00000+0  50375-4 0  9999
2 21423  82.4918 137.6921 0015856 316.0792  43.9161 14.81894929866108
ERS-1                   
1 21574U 91050A   26156.48753062  .00000266  00000+0  99737-4 0  9991
2 21574  98.7801 176.8995 0030864 303.0379  56.7844 14.39509691828363
ARIANE 40 R/B           
1 21610U 91050F   26156.39942960  .00000312  00000+0  10569-3 0  9996
2 21610  98.1880 205.2747 0003699 147.6027 212.5392 14.42949895831648
INTERCOSMOS 25          
1 21819U 91086A   26156.55705141  .00000821  00000+0  16328-3 0  9996
2 21819  82.6055 256.8474 1484475 287.5043  56.9522 12.12181566507337
SL-8 R/B                
1 21876U 92008B   26156.50155444  .00000038  00000+0  23259-4 0  9996
2 21876  82.9270 202.4756 0033278 248.3903 224.1561 13.75973742721494
SL-8 R/B                
1 21938U 92020B   26156.85084269  .00000071  00000+0  57171-4 0  9990
2 21938  82.9302  88.2771 0030314  53.2605   1.0839 13.75547802713255
USA 81                  
1 21949U 92023A   26156.81841303  .00000208  00000+0  69526-4 0  9990
2 21949  85.0076  80.5683 0002729  95.1529 264.9975 14.32395107107403
COSMOS 2219             
1 22219U 92076A   26156.44815809 -.00000124  00000+0 -40558-4 0  9993
2 22219  71.0581 194.6129 0016048  63.3408 296.9356 14.14095701730782
SL-16 R/B               
1 22220U 92076B   26156.88158442 -.00000164  00000+0 -57972-4 0  9998
2 22220  71.0010   2.5981 0014359 313.5294 139.9731 14.16872621734323
COSMOS 2221             
1 22236U 92080A   26156.50475582  .00001522  00000+0  13161-3 0  9994
2 22236  82.5037 194.9568 0012606 255.4528 104.5296 14.96503646793921
SL-16 R/B               
1 22285U 92093B   26156.51132367 -.00000007  00000+0  20745-4 0  9999
2 22285  71.0203 179.9023 0004582 203.9491 156.1420 14.15464970725589
COSMOS 2228             
1 22286U 92094A   26156.86249206  .00002751  00000+0  23290-3 0  9994
2 22286  82.5169 152.8902 0018046  11.0673 349.0943 14.97545124789252
SL-16 R/B               
1 22566U 93016B   26156.84353017 -.00000028  00000+0  10196-4 0  9992
2 22566  71.0081  30.0338 0010952 200.1426 159.9266 14.15308518714645
COSMOS 2242             
1 22626U 93024A   26156.48255651  .00001785  00000+0  15300-3 0  9994
2 22626  82.5182 182.7407 0016517  16.0786 344.0957 14.96868319793526
SL-16 R/B               
1 22803U 93059B   26156.49124242  .00000012  00000+0  29793-4 0  9995
2 22803  70.9885 185.9686 0014921  74.3810 285.8960 14.17243439691975
ARIANE 40 R/B           
1 22830U 93061H   26156.47424701  .00000218  00000+0  95428-4 0  9995
2 22830  98.4821 223.5742 0011199  30.6064 329.5771 14.32902762706670
COSMOS 2278             
1 23087U 94023A   26156.86054064  .00000394  00000+0  23051-3 0  9990
2 23087  71.0539 350.6248 0010651 255.9804 104.0135 14.14391024657271
SL-16 R/B               
1 23088U 94023B   26156.93803222  .00000090  00000+0  71230-4 0  9993
2 23088  70.9997 245.5555 0003501 199.3834 160.7156 14.15018590658572
SL-16 R/B               
1 23343U 94074B   26156.10994514  .00000453  00000+0  67173-4 0  9991
2 23343  97.6995 183.3338 0005279 304.0059 123.0223 14.79491724700171
SL-16 R/B               
1 23405U 94077B   26156.46119805 -.00000287  00000+0 -12218-3 0  9990
2 23405  70.9808 167.8323 0002508 334.7270  25.3730 14.15574705628655
